NORAD_CAT_ID,OBJECT_NAME,OBJECT_TYPE,EPOCH,MEAN_MOTION,ECCENTRICITY,INCLINATION,RA_OF_ASC_NODE,ARG_OF_PERICENTER,MEAN_ANOMALY,BSTAR,MEAN_MOTION_DOT,MEAN_MOTION_DDOT,TLE_LINE0,TLE_LINE1,TLE_LINE2,SEMIMAJOR_AXIS,PERIOD,APOGEE,PERIGEE,DECAYED
53548.0,STARLINK-4513,PAYLOAD,2022-12-18 06:14:35,15.08840785,0.000137,53.2193,309.8027,51.4699,308.6416,-4.8194e-05,-1.055e-05,0.0,0 STARLINK-4513,1 53548U 22101X   22352.26013706 -.00001055  00000-0 -48194-4 0  9993,2 53548  53.2193 309.8027 0001370  51.4699 308.6416 15.08840785 18557,6917.878000000002,95.438,540.691,538.795,0.0
53548.0,STARLINK-4513,PAYLOAD,2022-12-18 14:11:32,15.08832315,0.0001307,53.2192,308.316,50.5519,309.5589,-4.7688e-05,-1.047e-05,0.0,0 STARLINK-4513,1 53548U 22101X   22352.59134286 -.00001047  00000-0 -47688-4 0  9994,2 53548  53.2192 308.3160 0001307  50.5519 309.5589 15.08832315 18606,6917.904,95.438,540.673,538.865,0.0
53548.0,STARLINK-4513,PAYLOAD,2022-12-18 20:33:04,15.08832993,0.0001726,53.2191,307.1262,53.3638,306.7513,-6.3804e-05,-1.303e-05,0.0,0 STARLINK-4513,1 53548U 22101X   22352.85630538 -.00001303  00000-0 -63804-4 0  9997,2 53548  53.2191 307.1262 0001726  53.3638 306.7513 15.08832993 18645,6917.901999999999,95.438,540.961,538.573,0.0
53548.0,STARLINK-4513,PAYLOAD,2022-12-19 06:05:23,15.08836627,0.0001561,53.2196,305.3422,53.9852,306.1285,0.00011946,1.614e-05,0.0,0 STARLINK-4513,1 53548U 22101X   22353.25373906  .00001614  00000-0  11946-3 0  9997,2 53548  53.2196 305.3422 0001561  53.9852 306.1285 15.08836627 18704,6917.891,95.438,540.836,538.6759999999998,0.0
53548.0,STARLINK-4513,PAYLOAD,2022-12-19 14:02:18,15.08840832,0.0001544,53.2193,303.8558,54.8232,305.2905,0.0002302,3.378e-05,0.0,0 STARLINK-4513,1 53548U 22101X   22353.58493289  .00003378  00000-0  23020-3 0  9995,2 53548  53.2193 303.8558 0001544  54.8232 305.2905 15.08840832 18754,6917.878000000002,95.438,540.811,538.675,0.0
53548.0,STARLINK-4513,PAYLOAD,2022-12-19 21:59:13,15.08856905,0.0001375,53.2198,302.3686,51.84,308.2715,-2.7085000000000004e-06,-3.31e-06,0.0,0 STARLINK-4513,1 53548U 22101X   22353.91612808 -.00000331  00000-0 -27085-5 0  9997,2 53548  53.2198 302.3686 0001375  51.8400 308.2715 15.08856905 18807,6917.829000000002,95.436,540.645,538.743,0.0
53548.0,STARLINK-4513,PAYLOAD,2022-12-20 05:56:08,15.08848552,0.0001389,53.2193,300.882,53.7409,306.3711,0.00015983,2.257e-05,0.0,0 STARLINK-4513,1 53548U 22101X   22354.24732606  .00002257  00000-0  15983-3 0  9992,2 53548  53.2193 300.8820 0001389  53.7409 306.3711 15.08848552 18859,6917.854,95.437,540.68,538.758,0.0
53548.0,STARLINK-4513,PAYLOAD,2022-12-20 13:53:04,15.0884621,0.0001483,53.2196,299.3951,53.1398,306.973,0.00015224,2.136e-05,0.0,0 STARLINK-4513,1 53548U 22101X   22354.57852640  .00002136  00000-0  15224-3 0  9993,2 53548  53.2196 299.3951 0001483  53.1398 306.9730 15.08846210 18907,6917.861,95.437,540.752,538.7,0.0
53548.0,STARLINK-4513,PAYLOAD,2022-12-21 01:00:47,15.08830464,0.0001257,53.22,297.314,53.5449,306.5659,-1.0029e-05,-4.47e-06,0.0,0 STARLINK-4513,1 53548U 22101X   22355.04222090 -.00000447  00000-0 -10029-4 0  9990,2 53548  53.2200 297.3140 0001257  53.5449 306.5659 15.08830464 18978,6917.91,95.438,540.644,538.905,0.0
53548.0,STARLINK-4513,PAYLOAD,2022-12-21 02:36:10,15.08836622,0.0001154,53.2197,297.0141,60.0947,300.016,-6.0035e-05,-1.243e-05,0.0,0 STARLINK-4513,1 53548U 22101X   22355.10845842 -.00001243  00000-0 -60035-4 0  9990,2 53548  53.2197 297.0141 0001154  60.0947 300.0160 15.08836622 18982,6917.891,95.438,540.554,538.957,0.0
53548.0,STARLINK-4513,PAYLOAD,2022-12-22 02:26:58,15.08825704,0.00011,53.2198,292.5540000000001,56.6212,303.4885,-6.1817e-05,-1.271e-05,0.0,0 STARLINK-4513,1 53548U 22101X   22356.10207027 -.00001271  00000-0 -61817-4 0  9998,2 53548  53.2198 292.5540 0001100  56.6212 303.4885 15.08825704 19131,6917.924,95.438,540.55,539.028,0.0
53548.0,STARLINK-4513,PAYLOAD,2022-12-22 05:37:44,15.08838054,0.0001505,53.2188,291.9606,60.1516,299.9625,-7.8524e-05,-1.537e-05,0.0,0 STARLINK-4513,1 53548U 22101X   22356.23454409 -.00001537  00000-0 -78524-4 0  9998,2 53548  53.2188 291.9606 0001505  60.1516 299.9625 15.08838054 19157,6917.886,95.438,540.7919999999998,538.71,0.0
53548.0,STARLINK-4513,PAYLOAD,2022-12-23 05:28:31,15.088281900000002,0.0001459,53.2188,287.5003,59.7648,300.3488,0.000172,2.45e-05,0.0,0 STARLINK-4513,1 53548U 22101X   22357.22814726  .00002450  00000-0  17200-3 0  9996,2 53548  53.2188 287.5003 0001459  59.7648 300.3488 15.08828190 19308,6917.916,95.438,540.7909999999998,538.7719999999998,0.0
53548.0,STARLINK-4513,PAYLOAD,2022-12-24 05:19:19,15.08840362,0.0001549,53.2188,283.0416,54.1206,305.9929,0.00013427,1.85e-05,0.0,0 STARLINK-4513,1 53548U 22101X   22358.22174822  .00001850  00000-0  13427-3 0  9993,2 53548  53.2188 283.0416 0001549  54.1206 305.9929 15.08840362 19458,6917.879,95.438,540.816,538.673,0.0
53548.0,STARLINK-4513,PAYLOAD,2022-12-24 11:40:52,15.0883198,0.0001541999999999,53.2184,281.8509,52.903,307.2103,5.3144e-05,5.58e-06,0.0,0 STARLINK-4513,1 53548U 22101X   22358.48671675  .00000558  00000-0  53144-4 0  9994,2 53548  53.2184 281.8509 0001542  52.9030 307.2103 15.08831980 19496,6917.905,95.438,540.837,538.703,0.0
53548.0,STARLINK-4513,PAYLOAD,2022-12-24 19:37:47,15.08836186,0.0001622,53.219,280.3632,55.9664,304.1482,3.3864e-05,2.51e-06,0.0,0 STARLINK-4513,1 53548U 22101X   22358.81791555  .00000251  00000-0  33864-4 0  9998,2 53548  53.2190 280.3632 0001622  55.9664 304.1482 15.08836186 19544,6917.892,95.438,540.879,538.635,0.0
53548.0,STARLINK-4513,PAYLOAD,2022-12-25 03:34:40,15.08877066,0.0001447,53.2184,278.8773,44.9524,315.1585,0.00036234,5.489e-05,0.0,0 STARLINK-4513,1 53548U 22101X   22359.14907826  .00005489  00000-0  36234-3 0  9996,2 53548  53.2184 278.8773 0001447  44.9524 315.1585 15.08877066 19596,6917.767,95.435,540.633,538.631,0.0
53548.0,STARLINK-4513,PAYLOAD,2022-12-25 11:31:37,15.08855085,0.0001813,53.2186,277.3905,49.6343,310.4807,0.00016499,2.34e-05,0.0,0 STARLINK-4513,1 53548U 22101X   22359.48029525  .00002340  00000-0  16499-3 0  9998,2 53548  53.2186 277.3905 0001813  49.6343 310.4807 15.08855085 19645,6917.834,95.437,540.953,538.445,0.0
53548.0,STARLINK-4513,PAYLOAD,2022-12-25 19:28:35,15.08832209,0.0001547,53.2183,275.9038,46.5665,313.5456,-0.00010859,-2.015e-05,0.0,0 STARLINK-4513,1 53548U 22101X   22359.81151782 -.00002015  00000-0 -10859-3 0  9991,2 53548  53.2183 275.9038 0001547  46.5665 313.5456 15.08832209 19692,6917.904,95.438,540.839,538.6990000000002,0.0
53548.0,STARLINK-4513,PAYLOAD,2022-12-26 01:50:07,15.08838521,0.0001597,53.2184,274.7147,54.3726,305.7415,-5.4602e-05,-1.157e-05,0.0,0 STARLINK-4513,1 53548U 22101X   22360.07647207 -.00001157  00000-0 -54602-4 0  9994,2 53548  53.2184 274.7147 0001597  54.3726 305.7415 15.08838521 19737,6917.885,95.438,540.855,538.645,0.0
53548.0,STARLINK-4513,PAYLOAD,2022-12-26 11:22:25,15.08842213,0.0001602,53.2189,272.9304,49.9029,310.2104,5.0334e-05,5.13e-06,0.0,0 STARLINK-4513,1 53548U 22101X   22360.47390691  .00000513  00000-0  50334-4 0  9991,2 53548  53.2189 272.9304 0001602  49.9029 310.2104 15.08842213 19795,6917.874,95.437,540.847,538.63,0.0
53548.0,STARLINK-4513,PAYLOAD,2022-12-27 03:16:16,15.08851373,0.0001512,53.2189,269.9572,51.8583,308.2545,9.0462e-05,1.152e-05,0.0,0 STARLINK-4513,1 53548U 22101X   22361.13629734  .00001152  00000-0  90462-4 0  9994,2 53548  53.2189 269.9572 0001512  51.8583 308.2545 15.08851373 19899,6917.846,95.437,540.757,538.665,0.0
53548.0,STARLINK-4513,PAYLOAD,2022-12-27 11:13:11,15.08865555,0.0001598,53.2195,268.4712,45.0687,315.0435,-0.00010353,-1.937e-05,0.0,0 STARLINK-4513,1 53548U 22101X   22361.46748915 -.00001937  00000-0 -10353-3 0  9996,2 53548  53.2195 268.4712 0001598  45.0687 315.0435 15.08865555 19947,6917.802,95.436,540.773,538.562,0.0
53548.0,STARLINK-4513,PAYLOAD,2022-12-28 03:07:02,15.08847802,0.0001612,53.2192,265.4971,48.1248,311.9881,0.00015217,2.135e-05,0.0,0 STARLINK-4513,1 53548U 22101X   22362.12989048  .00002135  00000-0  15217-3 0  9997,2 53548  53.2192 265.4971 0001612  48.1248 311.9881 15.08847802 20040,6917.857,95.437,540.837,538.606,0.0
53548.0,STARLINK-4513,PAYLOAD,2022-12-29 02:57:51,15.08830506,0.0002112,53.2203,261.0359,52.327,307.7913,-9.2062e-05,-1.753e-05,0.0,0 STARLINK-4513,1 53548U 22101X   22363.12351369 -.00001753  00000-0 -92062-4 0  9998,2 53548  53.2203 261.0359 0002112  52.3270 307.7913 15.08830506 20191,6917.909000000002,95.438,541.235,538.313,0.0
53548.0,STARLINK-4513,PAYLOAD,2022-12-29 10:54:47,15.08823961,0.0001793,53.2202,259.5496,51.1183,308.9969,-0.00014926,-2.662e-05,0.0,0 STARLINK-4513,1 53548U 22101X   22363.45472074 -.00002662  00000-0 -14926-3 0  9993,2 53548  53.2202 259.5496 0001793  51.1183 308.9969 15.08823961 20245,6917.929,95.439,541.035,538.554,0.0
53548.0,STARLINK-4513,PAYLOAD,2022-12-30 02:48:39,15.08829589,0.0001625,53.2197,256.5742,52.9779,307.1361,-0.00014026,-2.519e-05,0.0,0 STARLINK-4513,1 53548U 22101X   22364.11712260 -.00002519  00000-0 -14026-3 0  9993,2 53548  53.2197 256.5742 0001625  52.9779 307.1361 15.08829589 20343,6917.9119999999975,95.438,540.901,538.653,0.0
53548.0,STARLINK-4513,PAYLOAD,2022-12-31 02:39:25,15.08851361,0.0001729,53.2171,252.1163,51.9699,308.1449,0.00061958,9.589e-05,0.0,0 STARLINK-4513,1 53548U 22101X   22365.11071647  .00009589  00000-0  61958-3 0  9999,2 53548  53.2171 252.1163 0001729  51.9699 308.1449 15.08851361 20496,6917.846,95.437,540.9069999999998,538.515,0.0
53548.0,STARLINK-4513,PAYLOAD,2023-01-01 02:30:12,15.0884366,0.0001714,53.2175,247.6562,50.2279,309.8864,-2.0609e-05,-6.16e-06,0.0,0 STARLINK-4513,1 53548U 22101X   23001.10431325 -.00000616  00000-0 -20609-4 0  9992,2 53548  53.2175 247.6562 0001714  50.2279 309.8864 15.08843660 20641,6917.869000000002,95.437,540.92,538.548,0.0
